[
  {
    "OBJECT_NAME": "STARLINK-31259",
    "OBJECT_ID": "2024-041C",
    "EPOCH": "2025-04-16T22:00:00.999936",
    "MEAN_MOTION": 15.27699981,
    "ECCENTRICITY": 0.000123,
    "INCLINATION": 43.0012,
    "RA_OF_ASC_NODE": 355.791,
    "ARG_OF_PERICENTER": 266.4124,
    "MEAN_ANOMALY": 325.9114,
    "EPHEMERIS_TYPE": 0,
    "CLASSIFICATION_TYPE": "U",
    "NORAD_CAT_ID": 59076,
    "ELEMENT_SET_NO": 999,
    "REV_AT_EPOCH": 589,
    "BSTAR": -0.0074215,
    "MEAN_MOTION_DOT": -0.00199802,
    "MEAN_MOTION_DDOT": 0
  },
  {
    "OBJECT_NAME": "STARLINK-31281",
    "OBJECT_ID": "2024-041D",
    "EPOCH": "2025-04-16T22:00:00.999936",
    "MEAN_MOTION": 15.27605851,
    "ECCENTRICITY": 0.0001831,
    "INCLINATION": 43.0007,
    "RA_OF_ASC_NODE": 355.8404,
    "ARG_OF_PERICENTER": 283.6896,
    "MEAN_ANOMALY": 287.3959,
    "EPHEMERIS_TYPE": 0,
    "CLASSIFICATION_TYPE": "U",
    "NORAD_CAT_ID": 59077,
    "ELEMENT_SET_NO": 999,
    "REV_AT_EPOCH": 589,
    "BSTAR": -0.0036318,
    "MEAN_MOTION_DOT": -0.00098959,
    "MEAN_MOTION_DDOT": 0
  },
  {
    "OBJECT_NAME": "STARLINK-31274",
    "OBJECT_ID": "2024-041E",
    "EPOCH": "2025-04-15T23:39:15.137568",
    "MEAN_MOTION": 15.25906004,
    "ECCENTRICITY": 0.0001043,
    "INCLINATION": 43.0021,
    "RA_OF_ASC_NODE": 0.525,
    "ARG_OF_PERICENTER": 273.3414,
    "MEAN_ANOMALY": 86.7318,
    "EPHEMERIS_TYPE": 0,
    "CLASSIFICATION_TYPE": "U",
    "NORAD_CAT_ID": 59078,
    "ELEMENT_SET_NO": 999,
    "REV_AT_EPOCH": 6416,
    "BSTAR": 5.3889e-5,
    "MEAN_MOTION_DOT": 1.152e-5,
    "MEAN_MOTION_DDOT": 0
  },
  {
    "OBJECT_NAME": "STARLINK-31257",
    "OBJECT_ID": "2024-041F",
    "EPOCH": "2025-04-15T23:35:58.743456",
    "MEAN_MOTION": 15.25914648,
    "ECCENTRICITY": 8.58e-5,
    "INCLINATION": 43.0014,
    "RA_OF_ASC_NODE": 0.5167,
    "ARG_OF_PERICENTER": 260.9493,
    "MEAN_ANOMALY": 99.1261,
    "EPHEMERIS_TYPE": 0,
    "CLASSIFICATION_TYPE": "U",
    "NORAD_CAT_ID": 59079,
    "ELEMENT_SET_NO": 999,
    "REV_AT_EPOCH": 6416,
    "BSTAR": 8.9239e-5,
    "MEAN_MOTION_DOT": 2.078e-5,
    "MEAN_MOTION_DDOT": 0
  },
  {
    "OBJECT_NAME": "STARLINK-31299",
    "OBJECT_ID": "2024-041G",
    "EPOCH": "2025-04-16T16:43:49.624032",
    "MEAN_MOTION": 15.27605706,
    "ECCENTRICITY": 0.0001186,
    "INCLINATION": 43.0019,
    "RA_OF_ASC_NODE": 259.5494,
    "ARG_OF_PERICENTER": 273.1907,
    "MEAN_ANOMALY": 86.8809,
    "EPHEMERIS_TYPE": 0,
    "CLASSIFICATION_TYPE": "U",
    "NORAD_CAT_ID": 59080,
    "ELEMENT_SET_NO": 999,
    "REV_AT_EPOCH": 6542,
    "BSTAR": -3.3886e-6,
    "MEAN_MOTION_DOT": -3.55e-6,
    "MEAN_MOTION_DDOT": 0
  },
  {
    "OBJECT_NAME": "STARLINK-31292",
    "OBJECT_ID": "2024-041H",
    "EPOCH": "2025-04-16T17:44:56.928192",
    "MEAN_MOTION": 15.25923917,
    "ECCENTRICITY": 0.0002511,
    "INCLINATION": 43.0026,
    "RA_OF_ASC_NODE": 356.7187,
    "ARG_OF_PERICENTER": 274.7299,
    "MEAN_ANOMALY": 85.3265,
    "EPHEMERIS_TYPE": 0,
    "CLASSIFICATION_TYPE": "U",
    "NORAD_CAT_ID": 59081,
    "ELEMENT_SET_NO": 999,
    "REV_AT_EPOCH": 6427,
    "BSTAR": 0.00027459,
    "MEAN_MOTION_DOT": 6.935e-5,
    "MEAN_MOTION_DDOT": 0
  },
  {
    "OBJECT_NAME": "STARLINK-31286",
    "OBJECT_ID": "2024-041J",
    "EPOCH": "2025-04-16T17:41:42.510912",
    "MEAN_MOTION": 15.25906763,
    "ECCENTRICITY": 0.0003856,
    "INCLINATION": 43.0132,
    "RA_OF_ASC_NODE": 356.7041,
    "ARG_OF_PERICENTER": 300.8573,
    "MEAN_ANOMALY": 59.1898,
    "EPHEMERIS_TYPE": 0,
    "CLASSIFICATION_TYPE": "U",
    "NORAD_CAT_ID": 59082,
    "ELEMENT_SET_NO": 999,
    "REV_AT_EPOCH": 6435,
    "BSTAR": 9.2176e-5,
    "MEAN_MOTION_DOT": 2.153e-5,
    "MEAN_MOTION_DDOT": 0
  },
  {
    "OBJECT_NAME": "STARLINK-31252",
    "OBJECT_ID": "2024-041K",
    "EPOCH": "2025-04-16T21:07:04.458144",
    "MEAN_MOTION": 15.27700154,
    "ECCENTRICITY": 0.0001526,
    "INCLINATION": 43.0002,
    "RA_OF_ASC_NODE": 273.1553,
    "ARG_OF_PERICENTER": 259.0938,
    "MEAN_ANOMALY": 100.9742,
    "EPHEMERIS_TYPE": 0,
    "CLASSIFICATION_TYPE": "U",
    "NORAD_CAT_ID": 59083,
    "ELEMENT_SET_NO": 999,
    "REV_AT_EPOCH": 6529,
    "BSTAR": 0.0047809,
    "MEAN_MOTION_DOT": 0.00134205,
    "MEAN_MOTION_DDOT": 0
  },
  {
    "OBJECT_NAME": "STARLINK-31261",
    "OBJECT_ID": "2024-041L",
    "EPOCH": "2025-04-16T16:49:35.543712",
    "MEAN_MOTION": 15.25913616,
    "ECCENTRICITY": 0.0003232,
    "INCLINATION": 43.0042,
    "RA_OF_ASC_NODE": 356.4479,
    "ARG_OF_PERICENTER": 295.5461,
    "MEAN_ANOMALY": 64.5056,
    "EPHEMERIS_TYPE": 0,
    "CLASSIFICATION_TYPE": "U",
    "NORAD_CAT_ID": 59084,
    "ELEMENT_SET_NO": 999,
    "REV_AT_EPOCH": 6432,
    "BSTAR": 0.00014465,
    "MEAN_MOTION_DOT": 3.528e-5,
    "MEAN_MOTION_DDOT": 0
  },
  {
    "OBJECT_NAME": "STARLINK-31290",
    "OBJECT_ID": "2024-041M",
    "EPOCH": "2025-04-16T08:25:09.432768",
    "MEAN_MOTION": 15.27520712,
    "ECCENTRICITY": 5.72e-5,
    "INCLINATION": 43.0066,
    "RA_OF_ASC_NODE": 345.1316,
    "ARG_OF_PERICENTER": 300.5111,
    "MEAN_ANOMALY": 59.5684,
    "EPHEMERIS_TYPE": 0,
    "CLASSIFICATION_TYPE": "U",
    "NORAD_CAT_ID": 59085,
    "ELEMENT_SET_NO": 999,
    "REV_AT_EPOCH": 6451,
    "BSTAR": 0.0005972,
    "MEAN_MOTION_DOT": 0.00016178,
    "MEAN_MOTION_DDOT": 0
  },
  {
    "OBJECT_NAME": "STARLINK-31279",
    "OBJECT_ID": "2024-041N",
    "EPOCH": "2025-04-16T13:37:47.722944",
    "MEAN_MOTION": 15.25883312,
    "ECCENTRICITY": 0.000182,
    "INCLINATION": 43.0001,
    "RA_OF_ASC_NODE": 357.1611,
    "ARG_OF_PERICENTER": 245.5618,
    "MEAN_ANOMALY": 114.5043,
    "EPHEMERIS_TYPE": 0,
    "CLASSIFICATION_TYPE": "U",
    "NORAD_CAT_ID": 59086,
    "ELEMENT_SET_NO": 999,
    "REV_AT_EPOCH": 6431,
    "BSTAR": -0.00032653,
    "MEAN_MOTION_DOT": -8.782e-5,
    "MEAN_MOTION_DDOT": 0
  },
  {
    "OBJECT_NAME": "STARLINK-31266",
    "OBJECT_ID": "2024-041P",
    "EPOCH": "2025-04-16T22:08:10.693536",
    "MEAN_MOTION": 15.25982714,
    "ECCENTRICITY": 0.0002679,
    "INCLINATION": 42.9992,
    "RA_OF_ASC_NODE": 355.5058,
    "ARG_OF_PERICENTER": 306.2461,
    "MEAN_ANOMALY": 53.8142,
    "EPHEMERIS_TYPE": 0,
    "CLASSIFICATION_TYPE": "U",
    "NORAD_CAT_ID": 59087,
    "ELEMENT_SET_NO": 999,
    "REV_AT_EPOCH": 6435,
    "BSTAR": 0.0018007,
    "MEAN_MOTION_DOT": 0.00047255,
    "MEAN_MOTION_DDOT": 0
  },
  {
    "OBJECT_NAME": "STARLINK-31313",
    "OBJECT_ID": "2024-041Q",
    "EPOCH": "2025-04-16T17:22:09.646464",
    "MEAN_MOTION": 15.25913217,
    "ECCENTRICITY": 0.0001043,
    "INCLINATION": 43,
    "RA_OF_ASC_NODE": 356.592,
    "ARG_OF_PERICENTER": 146.0863,
    "MEAN_ANOMALY": 214.0055,
    "EPHEMERIS_TYPE": 0,
    "CLASSIFICATION_TYPE": "U",
    "NORAD_CAT_ID": 59088,
    "ELEMENT_SET_NO": 999,
    "REV_AT_EPOCH": 6427,
    "BSTAR": 0.0004462,
    "MEAN_MOTION_DOT": 0.00011433,
    "MEAN_MOTION_DDOT": 0
  },
  {
    "OBJECT_NAME": "STARLINK-31307",
    "OBJECT_ID": "2024-041R",
    "EPOCH": "2025-04-16T17:54:31.559904",
    "MEAN_MOTION": 15.2592171,
    "ECCENTRICITY": 0.000189,
    "INCLINATION": 43.0018,
    "RA_OF_ASC_NODE": 355.9214,
    "ARG_OF_PERICENTER": 278.4769,
    "MEAN_ANOMALY": 81.5868,
    "EPHEMERIS_TYPE": 0,
    "CLASSIFICATION_TYPE": "U",
    "NORAD_CAT_ID": 59089,
    "ELEMENT_SET_NO": 999,
    "REV_AT_EPOCH": 6433,
    "BSTAR": 0.00023493,
    "MEAN_MOTION_DOT": 5.895e-5,
    "MEAN_MOTION_DDOT": 0
  }
]
