STARLINK-31259          
1 59076U 24041C   25106.91667824 -.00199802  00000+0 -74215-2 0  9996
2 59076  43.0012 355.7910 0001230 266.4124 325.9114 15.27699981  5894
STARLINK-31281          
1 59077U 24041D   25106.91667824 -.00098959  00000+0 -36318-2 0  9990
2 59077  43.0007 355.8404 0001831 283.6896 287.3959 15.27605851  5893
STARLINK-31274          
1 59078U 24041E   25105.98559187  .00001152  00000+0  53889-4 0  9990
2 59078  43.0021   0.5250 0001043 273.3414  86.7318 15.25906004 64167
STARLINK-31257          
1 59079U 24041F   25105.98331879  .00002078  00000+0  89239-4 0  9993
2 59079  43.0014   0.5167 0000858 260.9493  99.1261 15.25914648 64167
STARLINK-31299          
1 59080U 24041G   25106.69710213 -.00000355  00000+0 -33886-5 0  9993
2 59080  43.0019 259.5494 0001186 273.1907  86.8809 15.27605706 65429
STARLINK-31292          
1 59081U 24041H   25106.73954778  .00006935  00000+0  27459-3 0  9990
2 59081  43.0026 356.7187 0002511 274.7299  85.3265 15.25923917 64278
STARLINK-31286          
1 59082U 24041J   25106.73729758  .00002153  00000+0  92176-4 0  9996
2 59082  43.0132 356.7041 0003856 300.8573  59.1898 15.25906763 64355
STARLINK-31252          
1 59083U 24041K   25106.87991271  .00134205  00000+0  47809-2 0  9998
2 59083  43.0002 273.1553 0001526 259.0938 100.9742 15.27700154 65299
STARLINK-31261          
1 59084U 24041L   25106.70110583  .00003528  00000+0  14465-3 0  9996
2 59084  43.0042 356.4479 0003232 295.5461  64.5056 15.25913616 64321
STARLINK-31290          
1 59085U 24041M   25106.35080362  .00016178  00000+0  59720-3 0  9997
2 59085  43.0066 345.1316 0000572 300.5111  59.5684 15.27520712 64511
STARLINK-31279          
1 59086U 24041N   25106.56791346 -.00008782  00000+0 -32653-3 0  9992
2 59086  43.0001 357.1611 0001820 245.5618 114.5043 15.25883312 64314
STARLINK-31266          
1 59087U 24041P   25106.92234599  .00047255  00000+0  18007-2 0  9997
2 59087  42.9992 355.5058 0002679 306.2461  53.8142 15.25982714 64358
STARLINK-31313          
1 59088U 24041Q   25106.72372276  .00011433  00000+0  44620-3 0  9991
2 59088  43.0000 356.5920 0001043 146.0863 214.0055 15.25913217 64277
STARLINK-31307          
1 59089U 24041R   25106.74619861  .00005895  00000+0  23493-3 0  9998
2 59089  43.0018 355.9214 0001890 278.4769  81.5868 15.25921710 64334
